[{"OBJECT_NAME":"KUIPER-00246","OBJECT_ID":"2025-301U","EPOCH":"2026-03-09T22:00:01.999584","MEAN_MOTION":14.97785018,"ECCENTRICITY":0.00048695,"INCLINATION":51.9261,"RA_OF_ASC_NODE":67.2889,"ARG_OF_PERICENTER":75.0239,"MEAN_ANOMALY":130.5385,"EPHEMERIS_TYPE":0,"CLASSIFICATION_TYPE":"U","NORAD_CAT_ID":67151,"ELEMENT_SET_NO":999,"REV_AT_EPOCH":584,"BSTAR":-0.10186132,"MEAN_MOTION_DOT":-0.01114075,"MEAN_MOTION_DDOT":0},{"OBJECT_NAME":"SL-14 DEB","OBJECT_ID":"1987-068CC","EPOCH":"2026-03-09T06:53:52.983456","MEAN_MOTION":14.76895851,"ECCENTRICITY":0.00376949,"INCLINATION":82.1453,"RA_OF_ASC_NODE":169.61,"ARG_OF_PERICENTER":211.124,"MEAN_ANOMALY":148.7738,"EPHEMERIS_TYPE":0,"CLASSIFICATION_TYPE":"U","NORAD_CAT_ID":25454,"ELEMENT_SET_NO":999,"REV_AT_EPOCH":62692,"BSTAR":0.0083447583,"MEAN_MOTION_DOT":0.00059818,"MEAN_MOTION_DDOT":0}]
